#aV2011 12  2  0  0   .00000000      96 DD+AD WGS84 FIT  NGA
## 1664 432000.00000000   900.00000000 55897  .0000000000000
+   31     1  2  3  4  5  6  7  8  9 10 11 12 13 14 15 16 17
+         18 19 20 21 22 23 25 26 27 28 29 30 31 32  0  0  0
+          0  0  0  0  0  0  0  0  0  0  0  0  0  0  0  0  0
+          0  0  0  0  0  0  0  0  0  0  0  0  0  0  0  0  0
+          0  0  0  0  0  0  0  0  0  0  0  0  0  0  0  0  0
++         0  0  0  0  0  0  0  0  0  0  0  0  0  0  0  0  0
++         0  0  0  0  0  0  0  0  0  0  0  0  0  0  0  0  0
++         0  0  0  0  0  0  0  0  0  0  0  0  0  0  0  0  0
++         0  0  0  0  0  0  0  0  0  0  0  0  0  0  0  0  0
++         0  0  0  0  0  0  0  0  0  0  0  0  0  0  0  0  0
%c cc cc ccc ccc cccc cccc cccc cccc ccccc ccccc ccccc ccccc
%c cc cc ccc ccc cccc cccc cccc cccc ccccc ccccc ccccc ccccc
%f  0.0000000  0.000000000  0.00000000000  0.000000000000000
%f  0.0000000  0.000000000  0.00000000000  0.000000000000000
%i    0    0    0    0      0      0      0      0         0
%i    0    0    0    0      0      0      0      0         0
/*      NGA, ST. LOUIS,MO.                                  
/*   EPHEMERIS COMPUTED FROM  3 DAYS OF DATA                
/* CCCCCCCCCCCCCCCCCCCCCCCCCCCCCCCCCCCCCCCCCCCCCCCCCCCCCCCCC
/* CCCCCCCCCCCCCCCCCCCCCCCCCCCCCCCCCCCCCCCCCCCCCCCCCCCCCCCCC
*  2011 12  2 18  0   .00000000                                                 
P  1  21363.694327  13693.686309  -7874.101435    123.939793                    
V  1 -10278.293685   -941.860232 -29579.322285       .180483                    
P  2   -310.123558 -16443.796106  21008.941500    368.387054                    
V  2  25140.871146   8383.406937   6460.221915       .017503                    
P  3  -5777.277285  21794.644554 -14262.929483    802.938084                    
V  3 -14092.044541  10857.600729  23325.131448       .051858                    
P  4  14591.377818  -9967.365061  19684.322466     21.424315                    
V  4  23451.635318  10101.279060 -11791.624297       .112802                    
P  5  -2392.415178 -26231.183215   2824.651780   -252.823091                    
V  5   3717.803748   3051.343965  31384.202741      -.048827                    
P  6 -11069.907220  21252.146995 -11038.551738     10.420353                    
V  6 -12784.551576   7315.023605  26843.484299       .046749                    
P  7  25412.656297   5521.972209  -5980.704738     40.871486                    
V  7   6293.901252   4671.871054  30713.164426       .023114                    
P  8  21678.294283   -763.713617 -15661.013114       .155041                    
V  8  17368.175590   9312.311778  22948.796910       .000918                    
P  9 -18472.541910 -15156.810389 -12113.128045    122.316752                    
V  9  14199.032226   3358.223439 -27113.670299       .026181                    
P 10  10889.750904 -15608.346136  18127.483713    -20.883550                    
V 10   5394.085288  23146.832923  16865.239560      -.012464                    
P 11  17538.176642  13865.909104 -14938.702080   -209.450820                    
V 11 -18692.280771   1470.800602 -20762.560853      -.035455                    
P 12 -11653.553556 -20270.899897  12770.611087     38.253350                    
V 12   -612.562166 -16188.428863 -26102.277752       .022740                    
P 13  20753.716983  -1100.591834  16452.270276    238.376448                    
V 13 -16613.423506  13001.891174  21569.274419      -.020045                    
P 14 -21406.125081  15591.773884     66.237847    183.985339                    
V 14  -1249.898243  -1946.008013 -32283.540365       .017098                    
P 15  -7148.070455 -14072.882904 -21335.642357    -97.751577                    
V 15  20971.448953 -17294.884437   4572.152341       .009778                    
P 16    816.033582  26124.920207   3712.886708   -211.926463                    
V 16  -3043.130395  -4376.926317  31883.376044      -.019469                    
P 17  21583.134137 -15137.717932  -1692.159604    162.678406                    
V 17    -28.253597   3805.813382 -31841.738696      -.021029                    
P 18 -15960.095397  -1773.992587 -20853.997324    169.945217                    
V 18  -3727.071625 -27089.919026   4713.228464       .018453                    
P 19   3388.962311  15670.906846 -21148.932554   -211.024055                    
V 19 -22588.037899  14539.126433   7525.845779      -.039486                    
P 20  13460.616437  19175.958271  12427.794929     57.229381                    
V 20    346.759851  16342.411597 -25201.792028       .007612                    
P 21 -25047.919785  -2479.699810  -8915.836293   -188.314409                    
V 21  -9945.189566  -7053.852027  27884.329412      -.024642                    
P 22 -11882.298861  14478.673861 -18615.822488    143.263756                    
V 22  -5491.182289 -23597.744673 -14819.081063      -.000718                    
P 23  14680.456421   7042.359346  21076.619376    254.298168                    
V 23 -20409.191772  17104.265740   8157.995743      -.032857                    
P 25 -15267.187258 -10215.110692  19171.008199     29.254533                    
V 25  -3056.184651 -24206.465812 -15279.963245       .008795                    
P 26   5965.981350 -18824.047299 -18167.689204   -247.188759                    
V 26  18743.729660 -11517.878927  19091.832045      -.136886                    
P 27 -13997.960779 -15711.575303 -15807.708968    331.739421                    
V 27  20467.204187   5204.839018 -22000.677844       .039001                    
P 28  12488.005684 -10688.744709 -20266.273474     89.506530                    
V 28   4255.859651  26661.949781 -11387.556417       .034888                    
P 29 -20379.733288    514.908610  17067.629948    262.566452                    
V 29  16146.877603 -14395.127411  19823.562282       .033095                    
P 30  -4138.956080  22025.647680  13918.600820     34.007865                    
V 30  -7045.847477 -17037.122807  24206.775731      -.094454                    
P 31 -10808.120289  11368.664542  21671.086830    177.261493                    
V 31 -24959.553798 -10137.428985  -6983.888232       .050011                    
P 32   7069.602681  24901.907135   7184.168992   -371.004974                    
V 32  -1775.972197   8865.323381 -29545.496549      -.059296                    
EOF
